deliveryScheduling,deliveryFee,address,state,city,zip
1,3.99,30 N MICHIGAN AVE,IL,CHICAGO,60602
1,3.99,122 S. MICHIGAN AVE,IL,CHICAGO,60603
1,3.99,2 N STATE ST #1,IL,CHICAGO,60602
1,3.99,151 N STATE ST,IL,CHICAGO,60601
1,3.99,79 W MONROE ST,IL,CHICAGO,60603
1,3.99,100 W RANDOLPH ST,IL,CHICAGO,60601
1,3.99,201 W MADISON ST,IL,CHICAGO,60606
1,3.99,410 N MICHIGAN AVE,IL,CHICAGO,60611
1,3.99,200 W ADAMS ST,IL,CHICAGO,60606
1,3.99,342 E ILLINOIS ST,IL,CHICAGO,60611
1,3.99,250 S WACKER DR,IL,CHICAGO,60606
0,0.0,259 E ERIE ST,IL,CHICAGO,60611
0,0.0,201 E HURON ST,IL,CHICAGO,60611
0,5.99,433 W VAN BUREN ST,IL,CHICAGO,60607
1,3.99,641 N CLARK ST,IL,CHICAGO,60654
0,3.99,680 N LAKE SHORE DR,IL,CHICAGO,60611
0,0.0,225 E CHICAGO AVE,IL,CHICAGO,60611
1,3.99,2 E ROOSEVELT RD,IL,CHICAGO,60605
1,3.99,757 N MICHIGAN AVE,IL,CHICAGO,60611
1,3.99,315 W CHICAGO AVE,IL,CHICAGO,60654
1,3.99,111 S HALSTED ST,IL,CHICAGO,60661
1,3.99,933 N STATE ST,IL,CHICAGO,60610
1,3.99,501 W ROOSEVELT RD,IL,CHICAGO,60607
1,3.99,1200 N DEARBORN ST,IL,CHICAGO,60610
1,3.99,1051 W RANDOLPH,IL,CHICAGO,60607
1,3.99,316 W CERMAK RD,IL,CHICAGO,60616
1,3.99,1601 N WELLS ST,IL,CHICAGO,60614
0,0.0,711 W NORTH AVE,IL,CHICAGO,60610
1,3.99,1650 W CHICAGO AVE,IL,CHICAGO,60622
1,3.99,834 W ARMITAGE AVE,IL,CHICAGO,60614
1,3.99,1372 N MILWAUKEE AVE,IL,CHICAGO,60622
1,3.99,3000 S HALSTED ST,IL,CHICAGO,60608
1,3.99,2340 W MADISON ST,IL,CHICAGO,60612
1,3.99,2500 N CLARK ST,IL,CHICAGO,60614
1,3.99,1931 W CERMAK RD,IL,CHICAGO,60608
1,3.99,3405 S KING DR,IL,CHICAGO,60616
1,3.99,1601 N MILWAUKEE AVE,IL,CHICAGO,60647
1,3.99,1520 W FULLERTON AVE,IL,CHICAGO,60614
1,3.99,740 W DIVERSEY PKWY,IL,CHICAGO,60614
1,3.99,2440 W NORTH AVE,IL,CHICAGO,60647
0,0.0,2835 N SHEFFIELD AVE,IL,CHICAGO,60657
1,3.99,3046 N HALSTED ST,IL,CHICAGO,60657
1,3.99,2001 N MILWAUKEE AVE,IL,CHICAGO,60647
1,3.99,3201 N BROADWAY ST,IL,CHICAGO,60657
0,0.0,912 W BELMONT AVE,IL,CHICAGO,60657
0,0.0,3245 N HALSTED ST,IL,CHICAGO,60657
1,3.99,1926 W 35TH ST,IL,CHICAGO,60609
0,0.0,1333 W BELMONT AVE,IL,CHICAGO,60657
1,3.99,1649 W BELMONT AVE,IL,CHICAGO,60657
1,3.99,3401 W ROOSEVELT RD,IL,CHICAGO,60624
1,3.99,3646 N BROADWAY ST,IL,CHICAGO,60613
1,3.99,3045 W 26TH ST,IL,CHICAGO,60623
1,3.99,3110 W ARMITAGE AVE,IL,CHICAGO,60647
0,0.0,3800 W MADISON ST,IL,CHICAGO,60624
0,0.0,3303 W 26TH ST,IL,CHICAGO,60623
1,3.99,1320 E 47TH ST,IL,CHICAGO,60653
1,3.99,2744 N CALIFORNIA AVE,IL,CHICAGO,60647
1,3.99,4700 S HALSTED ST,IL,CHICAGO,60609
1,3.99,953 W IRVING PARK RD,IL,CHICAGO,60613
0,0.0,4025 N SHERIDAN RD,IL,CHICAGO,60613
1,3.99,3320 W FULLERTON AVE,IL,CHICAGO,60647
1,3.99,3358 N WESTERN AVE,IL,CHICAGO,60618
1,3.99,1614 W 47TH ST,IL,CHICAGO,60609
1,3.99,5036 S COTTAGE GROVE AVE,IL,CHICAGO,60615
1,3.99,1627 N PULASKI RD,IL,CHICAGO,60639
1,3.99,4005 W 26TH ST,IL,CHICAGO,60623
1,3.99,2301 W IRVING PARK RD,IL,CHICAGO,60618
0,0.0,5401 S. WENTWORTH,IL,CHICAGO,60609
1,3.99,4710 S WESTERN AVE,IL,CHICAGO,60609
1,3.99,4720 N MARINE DR,IL,CHICAGO,60640
1,3.99,3424 W BELMONT AVE,IL,CHICAGO,60618
1,3.99,1500 W WILSON AVE,IL,CHICAGO,60640
1,3.99,1554 E 55TH ST,IL,CHICAGO,60615
1,3.99,4385 S ARCHER AVE,IL,CHICAGO,60632
1,3.99,4748 W NORTH AVE,IL,CHICAGO,60639
1,3.99,3153 W IRVING PARK RD,IL,CHICAGO,60618
1,3.99,3222 N MILWAUKEE AVE,IL,CHICAGO,60618
1,3.99,5222 W MADISON ST,IL,CHICAGO,60644
1,3.99,4801 N LINCOLN AVE,IL,CHICAGO,60625
1,3.99,4343 N KEDZIE AVE,IL,CHICAGO,60618
1,3.99,4817 W FULLERTON AVE,IL,CHICAGO,60639
1,3.99,650 W 63RD ST,IL,CHICAGO,60621
1,3.99,3943 W 47TH ST,IL,CHICAGO,60632
0,3.99,5440 N CLARK ST,IL,CHICAGO,60640
1,3.99,4001 W IRVING PARK RD,IL,CHICAGO,60641
1,3.99,5435 S KEDZIE AVE,IL,CHICAGO,60632
1,3.99,5625 N RIDGE AVE,IL,CHICAGO,60660
1,3.99,5158 N LINCOLN AVE,IL,CHICAGO,60625
1,3.99,4745 W BELMONT AVE,IL,CHICAGO,60641
1,3.99,1546 N CENTRAL AVE,IL,CHICAGO,60651
1,3.99,5140 W DIVERSEY AVE,IL,CHICAGO,60639
1,3.99,1533 E 67TH ST,IL,CHICAGO,60637
1,3.99,6121 N BROADWAY ST,IL,CHICAGO,60660
1,3.99,5600 W FULLERTON AVE,IL,CHICAGO,60639
1,3.99,4010 W LAWRENCE AVE,IL,CHICAGO,60630
1,3.99,4040 N CICERO AVE,IL,CHICAGO,60641
1,3.99,6315 S KEDZIE AVE,IL,CHICAGO,60629
1,3.99,7109 S JEFFERY BLVD,IL,CHICAGO,60649
0,3.99,4000 W 59TH ST,IL,CHICAGO,60629
1,3.99,6412 ROOSEVELT RD,IL,OAK PARK,60304
1,3.99,6140 N WESTERN AVE,IL,CHICAGO,60659
1,3.99,5414 S ARCHER AVE,IL,CHICAGO,60638
0,0.0,2351 E 71ST ST,IL,CHICAGO,60649
0,0.0,6500 N CLARK ST,IL,CHICAGO,60626
1,3.99,3019 W PETERSON AVE,IL,CHICAGO,60659
1,3.99,11 E 75TH ST,IL,CHICAGO,60619
1,3.99,7111 S WESTERN AVE,IL,CHICAGO,60636
1,3.99,811 MADISON ST,IL,OAK PARK,60302
1,3.99,5935 W ADDISON ST,IL,CHICAGO,60634
1,3.99,4343 N CENTRAL AVE,IL,CHICAGO,60634
1,3.99,1213 W 79TH ST,IL,CHICAGO,60620
1,3.99,5874 S ARCHER AVE,IL,CHICAGO,60638
1,3.99,2015 E 79TH ST,IL,CHICAGO,60649
1,3.99,7200 ROOSEVELT RD,IL,FOREST PARK,60130
1,3.99,7113 CERMAK RD,IL,BERWYN,60402
1,3.99,7251 LAKE ST,IL,RIVER FOREST,60305
1,3.99,6800 OGDEN AVE,IL,BERWYN,60402
1,3.99,7045 S PULASKI RD,IL,CHICAGO,60629
1,3.99,7200 W NORTH AVE,IL,ELMWOOD PARK,60707
1,3.99,7410 N CLARK ST,IL,CHICAGO,60626
1,3.99,6809 W BELMONT AVE,IL,CHICAGO,60634
1,3.99,5230 N MILWAUKEE AVE,IL,CHICAGO,60630
1,3.99,8628 S COTTAGE GROVE AVE,IL,CHICAGO,60619
1,3.99,7510 N WESTERN AVE,IL,CHICAGO,60645
1,3.99,2828 N HARLEM AVE,IL,ELMWOOD PARK,60707
1,3.99,6798 N LINCOLN AVE,IL,LINCOLNWOOD,60712
1,3.99,1616 E 87TH ST,IL,CHICAGO,60617
1,3.99,6016 W 63RD ST,IL,CHICAGO,60638
1,3.99,635 CHICAGO AVE,IL,EVANSTON,60202
1,3.99,4101 N HARLEM AVE,IL,NORRIDGE,60706
1,3.99,100 LAKE ST,IL,MAYWOOD,60153
1,3.99,7150 W ARCHER AVE,IL,CHICAGO,60638
1,3.99,9148 S. COMMERCIAL AVE,IL,CHICAGO,60617
1,3.99,900 DODGE AVE,IL,EVANSTON,60202
1,3.99,1633 W 95TH ST,IL,CHICAGO,60643
1,3.99,7155 W FOSTER PL,IL,CHICAGO,60656
1,3.99,8361 BELMONT AVE,IL,RIVER GROVE,60171
1,3.99,6310 N NAGLE AVE,IL,CHICAGO,60646
1,3.99,5555 W 79TH ST,IL,BURBANK,60459
1,3.99,5600 W TOUHY AVE,IL,NILES,60714
1,3.99,4101 1ST AVE,IL,LYONS,60534
1,3.99,1600 W ROOSEVELT RD,IL,BROADVIEW,60155
1,3.99,8701 S CICERO AVE,IL,HOMETOWN,60456
1,3.99,8000 BROADVIEW VILLAGE SQ,IL,BROADVIEW,60155
1,3.99,1445 W NORTH AVE,IL,MELROSE PARK,60160
1,3.99,4850 OAKTON ST,IL,SKOKIE,60077
1,3.99,10300 S MICHIGAN AVE,IL,CHICAGO,60628
1,3.99,3945 DEMPSTER ST,IL,SKOKIE,60076
0,0.0,4440 W 95TH ST,IL,OAK LAWN,60453
1,3.99,5753 N CANFIELD AVE,IL,CHICAGO,60631
1,3.99,4820 N CUMBERLAND AVE,IL,NORRIDGE,60706
1,3.99,2345 W 103RD ST,IL,CHICAGO,60643
1,3.99,2100 GREEN BAY RD,IL,EVANSTON,60201
1,3.99,4740 W 95TH ST,IL,OAK LAWN,60453
1,3.99,9595 GRAND AVE,IL,FRANKLIN PARK,60131
1,3.99,7878 S HARLEM AVE,IL,BRIDGEVIEW,60455
1,3.99,9150 SKOKIE BLVD,IL,SKOKIE,60077
1,3.99,3611 E 106TH ST,IL,CHICAGO,60617
1,3.99,5730 DEMPSTER ST,IL,MORTON GROVE,60053
1,3.99,10345 W ROOSEVELT RD,IL,WESTCHESTER,60154
1,3.99,800 DEVON AVE,IL,PARK RIDGE,60068
1,3.99,2 N LA GRANGE RD,IL,LA GRANGE,60525
1,3.99,6001 W 95TH ST,IL,OAK LAWN,60453
1,3.99,4009 OLD ORCHARD RD,IL,SKOKIE,60076
1,3.99,833 W 115TH ST,IL,CHICAGO,60643
1,3.99,8715 S HARLEM AVE,IL,BRIDGEVIEW,60455
1,3.99,3220 W 111TH ST,IL,CHICAGO,60655
1,3.99,9800 IRVING PARK RD,IL,SCHILLER PARK,60176
1,3.99,10639 S CICERO AVE,IL,OAK LAWN,60453
1,3.99,8001 N MILWAUKEE AVE,IL,NILES,60714
1,3.99,901 W TOUHY AVE,IL,PARK RIDGE,60068
1,3.99,811 GREEN BAY RD,IL,WILMETTE,60091
1,3.99,4730 BUTTERFIELD RD,IL,HILLSIDE,60162
1,3.99,11833 S WESTERN AVE,IL,CHICAGO,60643
1,3.99,2151 S WOLF RD,IL,HILLSIDE,60162
1,3.99,6 E NORTH AVE,IL,NORTHLAKE,60164
1,3.99,11801 S AVENUE O,IL,CHICAGO,60617
1,3.99,4700 GILBERT AVE,IL,WESTERN SPRINGS,60558
1,3.99,9301 WAUKEGAN RD,IL,MORTON GROVE,60053
1,3.99,7945 W 95TH ST,IL,HICKORY HILLS,60457
1,3.99,3232 LAKE AVE,IL,WILMETTE,60091
1,3.99,6430 W 111TH ST,IL,WORTH,60482
1,3.99,6600 WILLOW SPRINGS RD,IL,LA GRANGE HIGHLANDS,60525
1,3.99,8800 W 95TH ST,IL,HICKORY HILLS,60457
0,0.0,1775 W DEMPSTER,IL,PARK RIDGE,60068
1,3.99,9000 N GREENWOOD AVE,IL,NILES,60714
1,3.99,2690 GOLF RD,IL,GLENVIEW,60025
1,3.99,160 N ROBERT T PALMER DR,IL,ELMHURST,60126
1,3.99,11053 SOUTHWEST HWY,IL,PALOS HILLS,60465
1,3.99,1403 WAUKEGAN RD,IL,GLENVIEW,60025
1,3.99,1858 E OAKTON ST,IL,DES PLAINES,60018
1,3.99,15 GRANT SQ,IL,HINSDALE,60521
1,3.99,1825 WILLOW RD,IL,NORTHFIELD,60093
1,3.99,12659 S RIDGELAND AVE,IL,PALOS HEIGHTS,60463
1,3.99,5 W IRVING PARK RD,IL,BENSENVILLE,60106
1,3.99,13501 CICERO AVE,IL,CRESTWOOD,60418
1,3.99,3301 GLENVIEW RD,IL,GLENVIEW,60025
1,3.99,925 GREEN BAY RD,IL,WINNETKA,60093
1,3.99,1378 MINER ST,IL,DES PLAINES,60016
0,0.0,4339 DI PAOLO CTR,IL,GLENVIEW,60025
1,3.99,1150 E SIBLEY BLVD,IL,DOLTON,60419
1,3.99,200 E ROOSEVELT RD,IL,VILLA PARK,60181
1,3.99,501 PLAINFIELD RD,IL,WILLOWBROOK,60527
1,3.99,3145 W 147TH ST,IL,POSEN,60469
1,3.99,2205 W 22ND ST,IL,OAK BROOK,60523
1,3.99,10 E SAINT CHARLES RD,IL,VILLA PARK,60181
1,3.99,522 TORRENCE AVE,IL,CALUMET CITY,60409
0,0.0,1 N BROADWAY ST,IL,DES PLAINES,60016
1,3.99,4800 148TH ST,IL,MIDLOTHIAN,60445
1,3.99,1 E OGDEN AVE,IL,WESTMONT,60559
0,3.99,353 PARK AVE,IL,GLENCOE,60022
1,3.99,16 E LAKE ST,IL,ADDISON,60101
1,3.99,17 W GOLF RD,IL,DES PLAINES,60016
1,3.99,2871 PFINGSTEN RD,IL,GLENVIEW,60026
1,3.99,390 E 162ND ST,IL,SOUTH HOLLAND,60473
1,3.99,8 W 63RD ST,IL,WESTMONT,60559
1,3.99,13023 S LA GRANGE RD,IL,PALOS PARK,60464
1,3.99,10S370 KINGERY HWY,IL,WILLOWBROOK,60527
0,3.99,15940 KEDZIE AVE,IL,MARKHAM,60428
1,3.99,21 RAND RD,IL,DES PLAINES,60016
1,3.99,1028 S ELMHURST RD,IL,MOUNT PROSPECT,60056
1,3.99,1701 E KENSINGTON RD,IL,MOUNT PROSPECT,60056
1,3.99,225 E ROOSEVELT RD,IL,LOMBARD,60148
1,3.99,1325 E IRVING PARK RD,IL,ITASCA,60143
1,3.99,1050 WAUKEGAN RD,IL,NORTHBROOK,60062
1,3.99,7516 S CASS AVE,IL,DARIEN,60561
1,3.99,5525 159TH ST,IL,OAK FOREST,60452
1,3.99,1000 OGDEN AVE,IL,DOWNERS GROVE,60515
1,3.99,309 W SAINT CHARLES RD,IL,LOMBARD,60148
1,3.99,632 ROGER WILLIAMS AVE,IL,HIGHLAND PARK,60035
1,3.99,930 ELK GROVE TOWN CTR,IL,ELK GROVE VILLAGE,60007
1,3.99,14680 S LA GRANGE RD,IL,ORLAND PARK,60462
1,3.99,7960 W 159TH ST,IL,ORLAND PARK,60462
1,3.99,3 E GOLF RD,IL,ARLINGTON HEIGHTS,60005
1,3.99,1 N ELMHURST RD,IL,PROSPECT HEIGHTS,60070
1,3.99,16675 OAK PARK AVE,IL,TINLEY PARK,60477
1,3.99,18133 TORRENCE AVE,IL,LANSING,60438
1,3.99,820 183RD ST,IL,HOMEWOOD,60430
1,3.99,3564 RIDGE RD,IL,LANSING,60438
1,3.99,8300 LEMONT RD,IL,DARIEN,60561
1,3.99,1000 E NORTHWEST HWY,IL,ARLINGTON HEIGHTS,60004
1,3.99,6240 BELMONT RD,IL,DOWNERS GROVE,60516
1,3.99,18300 GOVERNORS HWY,IL,HOMEWOOD,60430
1,3.99,840 N MAIN ST,IL,GLEN ELLYN,60137
1,3.99,780 WAUKEGAN RD,IL,DEERFIELD,60015
1,3.99,11981 W 143RD ST,IL,ORLAND PARK,60467
1,3.99,18301 PULASKI AVE,IL,HAZEL CREST,60429
1,3.99,2040 GLEN ELLYN RD,IL,GLENDALE HTS,60139
1,3.99,655 ELM PL,IL,HIGHLAND PARK,60035
1,3.99,10 N MILWAUKEE AVE,IL,WHEELING,60090
1,3.99,8400 171ST ST,IL,TINLEY PARK,60487
1,3.99,641 MEACHAM RD,IL,ELK GROVE VILLAGE,60007
1,3.99,324 ROOSEVELT RD,IL,GLEN ELLYN,60137
1,3.99,2501 75TH ST,IL,WOODRIDGE,60517
1,3.99,180 E LAKE ST,IL,BLOOMINGDALE,60108
1,3.99,445 E MAPLE AVE,IL,ROSELLE,60172
1,3.99,1711 W CAMPBELL ST,IL,ARLINGTON HEIGHTS,60005
1,3.99,1010 MAPLE AVE,IL,LISLE,60532
1,3.99,235 E PALATINE RD,IL,ARLINGTON HEIGHTS,60004
1,3.99,320 WAUKEGAN AVE,IL,HIGHWOOD,60040
1,3.99,680 E BOUGHTON RD,IL,BOLINGBROOK,60440
1,3.99,1199 W DUNDEE RD,IL,WHEELING,60090
1,3.99,770 E SCHAUMBURG RD,IL,SCHAUMBURG,60194
1,3.99,540 N SCHMALE RD,IL,CAROL STREAM,60188
1,3.99,3200 VOLLMER RD,IL,OLYMPIA FIELDS,60461
1,3.99,15575 E 127TH ST,IL,LEMONT,60439
1,3.99,1601 N MAIN ST,IL,WHEATON,60187
1,3.99,2020 S NAPERVILLE RD,IL,WHEATON,60189
1,3.99,1180 S ROSELLE RD,IL,SCHAUMBURG,60193
1,3.99,2501 WAUKEGAN RD,IL,BANNOCKBURN,60015
1,3.99,650 DIXIE HWY,IL,CHICAGO HEIGHTS,60411
1,3.99,270 W LAKE ST,IL,BLOOMINGDALE,60108
1,3.99,15 N BUFFALO GROVE RD,IL,BUFFALO GROVE,60089
1,3.99,6S235 STEEPLE RUN DR,IL,NAPERVILLE,60540
1,3.99,1225 W DUNDEE RD,IL,BUFFALO GROVE,60089
1,3.99,17955 WOLF RD,IL,ORLAND PARK,60467
1,3.99,1000 N ROSELLE RD,IL,HOFFMAN ESTATES,60169
1,3.99,20950 GOVERNORS HWY,IL,OLYMPIA FIELDS,60461
1,3.99,12 N NORTHWEST HWY,IL,PALATINE,60067
1,3.99,1303 WEHRLI RD,IL,NAPERVILLE,60565
1,3.99,101 LILY CACHE LN,IL,BOLINGBROOK,60440
1,3.99,805 W EUCLID AVE,IL,PALATINE,60067
1,3.99,2191 W ROOSEVELT RD,IL,WHEATON,60187
1,3.99,2601 E SAUK TRL,IL,SAUK VILLAGE,60411
1,3.99,1701 N BUFFALO GROVE RD,IL,BUFFALO GROVE,60089
1,3.99,713 E OGDEN AVE,IL,NAPERVILLE,60563
1,3.99,27W171 GENEVA RD,IL,WINFIELD,60190
1,3.99,225 MILWAUKEE AVE,IL,LINCOLNSHIRE,60069
1,3.99,1461 W SCHAUMBURG RD,IL,SCHAUMBURG,60194
1,3.99,7209 W LINCOLN HWY,IL,FRANKFORT,60423
1,3.99,375 E DUNDEE RD,IL,PALATINE,60074
1,3.99,2040 ARMY TRAIL RD,IL,HANOVER PARK,60133
1,3.99,15 S ORCHARD DR,IL,PARK FOREST,60466
1,3.99,3120 CHICAGO RD,IL,SOUTH CHICAGO HEIGHTS,60411
1,3.99,5500 COUNTY FARM RD,IL,HANOVER PARK,60133
1,3.99,296 E DEERPATH,IL,LAKE FOREST,60045
1,3.99,20002 WOLF RD,IL,MOKENA,60448
1,3.99,7350 BARRINGTON RD,IL,HANOVER PARK,60133
1,3.99,400 S MAIN ST,IL,NAPERVILLE,60540
1,3.99,63 W 87TH ST,IL,NAPERVILLE,60565
1,3.99,9554 E LINCOLN HWY,IL,FRANKFORT,60423
1,3.99,28W104 WARRENVILLE RD,IL,WARRENVILLE,60555
1,3.99,16750 W 159TH ST,IL,LOCKPORT,60441
0,0.0,1000 N WESTMORELAND RD,IL,LAKE FOREST,60045
1,3.99,347 N INDEPENDENCE BLVD,IL,ROMEOVILLE,60446
1,3.99,2560 W GOLF RD,IL,HOFFMAN ESTATES,60169
1,3.99,1295 LILY CACHE LN,IL,BOLINGBROOK,60490
1,3.99,1550 W ALGONQUIN RD,IL,HOFFMAN ESTATES,60192
1,3.99,125 N NELTNOR BLVD,IL,WEST CHICAGO,60185
1,3.99,612 RAYMOND DR,IL,NAPERVILLE,60563
1,3.99,2S613 STATE ROUTE 59,IL,WARRENVILLE,60555
1,3.99,450 S SCHOOLHOUSE RD,IL,NEW LENOX,60451
1,3.99,13 E IRVING PARK RD,IL,STREAMWOOD,60107
1,3.99,1779 SEQUOIA RD,IL,NAPERVILLE,60540
1,3.99,261 W TOWNLINE RD,IL,VERNON HILLS,60061
1,3.99,12700 ROCKLAND RD,IL,LAKE BLUFF,60044
1,3.99,899 S IL ROUTE 59,IL,BARTLETT,60103
1,3.99,11200 W LARAWAY RD,IL,FRANKFORT,60423
1,3.99,498 N WEBER RD,IL,ROMEOVILLE,60446
1,3.99,1285 S RAND RD,IL,LAKE ZURICH,60047
1,0.99,1470 S MILWAUKEE AVE,IL,LIBERTYVILLE,60048
1,3.99,466 NELSON RD,IL,NEW LENOX,60451
1,3.99,3035 BOOK RD,IL,NAPERVILLE,60564
1,3.99,2111 WINDING RIVER DR,IL,NAPERVILLE,60564
1,3.99,680 S WEBER RD,IL,ROMEOVILLE,60446
1,3.99,189 W NORTHWEST HWY,IL,BARRINGTON,60010
1,3.99,701 S MIDLOTHIAN RD,IL,MUNDELEIN,60060
1,3.99,2719 HASSERT BLVD,IL,NAPERVILLE,60564
1,3.99,355 N EOLA RD,IL,AURORA,60502
1,3.99,345 N LAKE ST,IL,MUNDELEIN,60060
1,3.99,358 E CASS ST,IL,JOLIET,60432
1,3.99,2751 E MAIN ST,IL,ST CHARLES,60174
1,3.99,910 N RAND RD,IL,LAKE ZURICH,60047
1,3.99,1770 N MILWAUKEE AVE,IL,LIBERTYVILLE,60048
1,3.99,2986 KIRK RD,IL,AURORA,60502
1,3.99,2311 OGDEN AVE,IL,AURORA,60504
1,3.99,1811 BELVIDERE RD,IL,WAUKEGAN,60085
1,3.99,2379 PLAINFIELD RD,IL,CREST HILL,60403
1,3.99,815 SUMMIT ST,IL,ELGIN,60120
1,3.99,1180 N FARNSWORTH AVE,IL,AURORA,60505
1,3.99,600 VILLA ST,IL,ELGIN,60120
1,3.99,951 N IL ROUTE 83,IL,MUNDELEIN,60060
0,0.0,2668 BELVIDERE RD,IL,WAUKEGAN,60085
1,3.99,1801 INGALLS AVE,IL,JOLIET,60435
1,3.99,14902 S ROUTE 59,IL,PLAINFIELD,60544
1,3.99,1163 W JEFFERSON ST,IL,JOLIET,60435
1,3.99,24801 W 135TH ST,IL,PLAINFIELD,60544
1,3.99,122 W WILSON ST,IL,BATAVIA,60510
1,3.99,1212 OGDEN AVE,IL,MONTGOMERY,60538
1,3.99,1514 ESSINGTON RD,IL,JOLIET,60435
1,3.99,9 N UNION ST,IL,AURORA,60505
1,3.99,2101 W JEFFERSON ST,IL,JOLIET,60435
1,3.99,709 N GREEN BAY RD,IL,WAUKEGAN,60085
1,3.99,1221 N LAKE ST,IL,AURORA,60506
1,3.99,2100 W STATE ST,IL,GENEVA,60134
1,3.99,1201 W SPRING ST,IL,SOUTH ELGIN,60177
1,3.99,399 LAKE MARIAN RD,IL,CARPENTERSVILLE,60110
1,3.99,1918 W FABYAN PKWY,IL,BATAVIA,60510
1,3.99,900 NORTHWEST HWY,IL,FOX RIVER GROVE,60021
1,3.99,4822 CATON FARM RD,IL,PLAINFIELD,60586
1,3.99,589 N MCLEAN BLVD,IL,ELGIN,60123
1,3.99,295 S US HIGHWAY 45,IL,GRAYSLAKE,60030
1,3.99,2200 N LEWIS AVE,IL,WAUKEGAN,60087
1,3.99,810 W MAIN ST,IL,WEST DUNDEE,60118
1,3.99,4830 GRAND AVE,IL,GURNEE,60031
1,3.99,1700 LARKIN AVE,IL,ELGIN,60123
1,3.99,1799 DOUGLAS RD,IL,MONTGOMERY,60538
1,3.99,602 W LIBERTY ST,IL,WAUCONDA,60084
1,3.99,290 RANDALL RD,IL,SOUTH ELGIN,60177
1,3.99,1051 OAK ST,IL,NORTH AURORA,60542
1,3.99,3351 W MAIN ST,IL,ST CHARLES,60175
1,3.99,1207 N RANDALL RD,IL,AURORA,60506
1,3.99,1301 E ALGONQUIN RD,IL,ALGONQUIN,60102
1,3.99,460 E WASHINGTON ST,IL,GRAYSLAKE,60030
1,3.99,40 E BELVIDERE RD,IL,HAINESVILLE,60030
1,3.99,410 CHICAGO RD,IL,OSWEGO,60543
1,3.99,22 N CONSTITUTION DR,IL,AURORA,60506
1,3.99,7501 GRAND AVE,IL,GURNEE,60031
1,3.99,1160 W JEFFERSON ST,IL,SHOREWOOD,60404
1,3.99,500 NORTHWEST HWY,IL,CARY,60013
1,3.99,39023 N GREEN BAY RD,IL,BEACH PARK,60087
1,3.99,2155 RANDALL RD,IL,CARPENTERSVILLE,60110
1,3.99,7851 CATON FARM RD,IL,PLAINFIELD,60586
1,3.99,2091 ORCHARD RD,IL,MONTGOMERY,60538
1,3.99,442 W STATE RD,IL,ISLAND LAKE,60042
1,3.99,2100 SHERIDAN RD,IL,ZION,60099
1,3.99,399 S US HIGHWAY 45,IL,LINDENHURST,60046
1,3.99,3401 ORCHARD RD,IL,OSWEGO,60543
1,3.99,305 W ROLLINS RD,IL,ROUND LAKE BEACH,60073
1,3.99,100 N RANDALL RD,IL,LAKE IN THE HILLS,60156
1,3.99,315 N IL ROUTE 31,IL,CRYSTAL LAKE,60012
1,3.99,28895 W IL ROUTE 120,IL,LAKEMOOR,60051
1,3.99,376 N SUGAR GROVE PKWY,IL,SUGAR GROVE,60554
1,3.99,151 NORTHWEST HWY,IL,CRYSTAL LAKE,60014
1,3.99,4001 W ALGONQUIN RD,IL,ALGONQUIN,60102
1,3.99,305 E GRAND AVE,IL,LAKE VILLA,60046
1,3.99,1001 N MAIN ST,IL,ELBURN,60119
1,3.99,100 W VETERANS PKWY,IL,YORKVILLE,60560
1,3.99,61 S US HIGHWAY 12,IL,FOX LAKE,60020
1,3.99,12000 PRINCETON DR,IL,HUNTLEY,60142
1,3.99,9950 N IL ROUTE 47,IL,HUNTLEY,60142
1,3.99,3925 W ELM ST,IL,MCHENRY,60050
1,3.99,27155 W EAMES ST,IL,CHANNAHON,60410
1,3.99,1991 S BRIDGE ST,IL,YORKVILLE,60560
1,3.99,283 W IL ROUTE 173,IL,ANTIOCH,60002
1,5.99,3805 80TH ST,WI,KENOSHA,53142
1,5.99,7525 SHERIDAN RD,WI,KENOSHA,53143
1,5.99,7535 GREEN BAY RD,WI,KENOSHA,53142
1,3.99,7880 WINN RD,IL,SPRING GROVE,60081
